[{"OBJECT_NAME":"SORAYA","OBJECT_ID":"2024-015A","EPOCH":"2026-03-09T23:47:27.347136","MEAN_MOTION":14.4267567,"ECCENTRICITY":0.00145543,"INCLINATION":64.5174,"RA_OF_ASC_NODE":9.0228,"ARG_OF_PERICENTER":231.7358,"MEAN_ANOMALY":128.2419,"EPHEMERIS_TYPE":0,"CLASSIFICATION_TYPE":"U","NORAD_CAT_ID":58817,"ELEMENT_SET_NO":999,"REV_AT_EPOCH":11246,"BSTAR":9.0214372e-5,"MEAN_MOTION_DOT":1.94e-6,"MEAN_MOTION_DDOT":0},{"OBJECT_NAME":"FENGYUN 1C DEB","OBJECT_ID":"1999-025ETS","EPOCH":"2026-03-09T03:34:15.632256","MEAN_MOTION":14.44542903,"ECCENTRICITY":0.00308076,"INCLINATION":98.8734,"RA_OF_ASC_NODE":202.0078,"ARG_OF_PERICENTER":1.3176,"MEAN_ANOMALY":358.8089,"EPHEMERIS_TYPE":0,"CLASSIFICATION_TYPE":"U","NORAD_CAT_ID":38725,"ELEMENT_SET_NO":999,"REV_AT_EPOCH":74599,"BSTAR":0.0023421133,"MEAN_MOTION_DOT":8.103e-5,"MEAN_MOTION_DDOT":0}]
